EOSSAT-1                
1 55053U 23001AW  26068.73619225  .00007695  00000+0  24844-3 0  9992
2 55053  97.3357 130.2294 0011263 110.3168 249.9285 15.32339828176689
STARLINK-33913          
1 65215U 25176T   26068.47449394  .00024915  00000+0  85110-3 0  9994
2 65215  53.1584 156.1278 0001160  63.2631 296.8489 15.30178168 33053
